{"spkid": "54292217", "covariance": {"labels": ["e", "q", "tp", "node", "peri", "i"], "elements": [{"label": "e", "name": "e", "sigma": 9.74034906631431e-08, "title": "eccentricity", "value": ".1279705084227189", "units": null}, {"units": "au", "value": ".8848403264825312", "title": "perihelion distance", "name": "q", "sigma": 8.7850650229315e-08, "label": "q"}, {"name": "tp", "sigma": 1.29411519055627e-05, "units": "TDB", "title": "time of perihelion passage", "value": "2459881.323436794795", "label": "tp"}, {"label": "node", "title": "longitude of the ascending node", "value": "278.2954873166254", "units": "deg", "name": "om", "sigma": 0.000220242151614057}, {"label": "peri", "sigma": 0.000221586534662703, "name": "w", "units": "deg", "value": "130.8618082711958", "title": "argument of perihelion"}, {"name": "i", "sigma": 2.15484767435393e-06, "units": "deg", "title": "inclination", "value": ".3668791820426034", "label": "i"}], "data": [["9.487439993365009E-15", "-8.556863633019338E-15", "-1.163103751045257E-12", "-1.100619095034662E-11", "1.083369065751085E-11", "-1.181617240862908E-13"], ["-8.556863633019338E-15", "7.717736745713446E-15", "1.049034991008059E-12", "9.909013980564798E-12", "-9.753410297173832E-12", "1.064073332167975E-13"], ["-1.163103751045257E-12", "1.049034991008059E-12", "1.674734126428504E-10", "8.822408363505138E-10", "-8.360513469671383E-10", "1.018990376040984E-11"], ["-1.100619095034662E-11", "9.909013980564798E-12", "8.822408363505138E-10", "4.850660534758922E-8", "-4.878938767788034E-8", "4.696976679030915E-10"], ["1.083369065751085E-11", "-9.753410297173832E-12", "-8.360513469671383E-10", "-4.878938767788034E-8", "4.910059234382524E-8", "-4.71943158513316E-10"], ["-1.181617240862908E-13", "1.064073332167975E-13", "1.018990376040984E-11", "4.696976679030915E-10", "-4.71943158513316E-10", "4.643368499668545E-12"]], "epoch": "2460063.5"}, "elements": [{"title": "eccentricity", "value": ".1282678473140724", "units": null, "name": "e", "sigma": "1.0091E-7", "label": "e"}, {"units": "au", "title": "semi-major axis", "value": "1.020412643719147", "sigma": "1.2228E-7", "name": "a", "label": "a"}, {"sigma": "1.1346E-7", "name": "q", "value": ".8895265105372304", "title": "perihelion distance", "units": "au", "label": "q"}, {"title": "inclination; angle with respect to x-y ecliptic plane", "value": ".5418682565164206", "units": "deg", "sigma": "2.1059E-6", "name": "i", "label": "i"}, {"units": "deg", "value": "153.8427418121125", "title": "longitude of the ascending node", "sigma": "9.0758E-5", "name": "om", "label": "node"}, {"name": "w", "sigma": ".0001047", "title": "argument of perihelion", "value": "255.8321932683049", "units": "deg", "label": "peri"}, {"title": "mean anomaly", "value": "190.1382016687001", "units": "deg", "name": "ma", "sigma": "7.5122E-5", "label": "M"}, {"name": "tp", "sigma": ".00011037", "units": "TDB", "value": "2461378.145982630830", "title": "time of perihelion passage", "label": "tp"}, {"label": "period", "units": "d", "title": "sidereal orbital period", "value": "376.4975667004604", "sigma": "6.7674E-5", "name": "per"}, {"label": "n", "units": "deg/d", "title": "mean motion", "value": ".956181478554984", "name": "n", "sigma": "1.7187E-7"}, {"title": "aphelion distance", "value": "1.151298776901063", "units": "au", "sigma": "1.3796E-7", "name": "ad", "label": "Q"}], "epoch": "2461200.5"}